OBJECT_NAME,OBJECT_ID,EPOCH,MEAN_MOTION,ECCENTRICITY,INCLINATION,RA_OF_ASC_NODE,ARG_OF_PERICENTER,MEAN_ANOMALY,EPHEMERIS_TYPE,CLASSIFICATION_TYPE,NORAD_CAT_ID,ELEMENT_SET_NO,REV_AT_EPOCH,BSTAR,MEAN_MOTION_DOT,MEAN_MOTION_DDOT
SL-8 R/B,1985-006B,2026-06-24T02:55:07.662144,14.37837557,.00190474,74.0460,65.3038,311.3405,157.1094,0,U,15483,999,16932,.55752472E-4,.142E-5,0
SL-12 R/B(2),1985-042D,2026-06-24T04:41:53.124000,14.22006915,.00366834,71.1068,222.7092,317.2149,99.4688,0,U,15772,999,12953,.32342826E-4,.24E-6,0
SL-14 R/B,1985-069B,2026-06-24T00:50:35.642400,14.86520046,.0018342,82.5273,284.9255,195.4882,164.5776,0,U,15945,999,18863,.37877636E-4,.361E-5,0
SL-16 R/B,1985-097B,2026-06-23T18:51:11.746368,14.16611859,.00053968,71.0034,277.1861,97.1134,74.3476,0,U,16182,999,10225,.14828039E-3,.248E-5,0
SL-14 R/B,1986-006B,2026-06-24T01:12:04.180032,14.86951167,.00747133,82.5264,159.6548,280.2762,79.0037,0,U,16496,999,16501,.44263858E-4,.442E-5,0
COSMOS 1743,1986-034A,2026-06-23T20:25:27.473952,15.67495103,.00043657,82.5277,321.6442,244.2090,115.8720,0,U,16719,999,19683,.43395903E-3,.47232E-3,0
SL-14 R/B,1986-046B,2026-06-24T03:46:40.916064,14.85675237,.0021837,82.4820,339.5881,233.8785,126.0410,0,U,16792,999,14221,.39171113E-4,.365E-5,0
SL-14 R/B,1986-055B,2026-06-24T02:13:02.741376,14.85726929,.00183985,82.5201,26.6403,344.8123,131.3998,0,U,16882,999,13516,.325277E-4,.307E-5,0
AJISAI (EGS),1986-061A,2026-06-24T07:01:00.310944,12.44516775,.00111725,50.0078,125.5461,198.6380,273.7703,0,U,16908,999,48127,.22013238E-4,-.94E-6,0
SL-14 R/B,1987-024B,2026-06-24T05:16:01.667136,14.86217150,.00166788,82.5280,352.6396,267.8001,92.1305,0,U,17567,999,10395,.37035043E-4,.35E-5,0
COSMOS 1833,1987-027A,2026-06-24T04:29:38.907168,14.13055388,.00230389,70.9197,102.1550,43.3861,316.9068,0,U,17589,999,2536,.18949599E-3,.307E-5,0
SL-16 R/B,1987-027B,2026-06-24T03:12:03.476448,14.17171374,.00066668,71.0033,52.1914,304.8297,55.2199,0,U,17590,999,3042,.83966626E-4,.121E-5,0
SL-14 R/B,1987-038B,2026-06-24T03:13:42.371616,14.85448569,.00195328,82.5003,196.5282,168.2382,191.9295,0,U,17912,999,9503,.32103071E-4,.302E-5,0
COSMOS 1844,1987-041A,2026-06-24T04:17:03.550848,14.14567536,.00325231,70.8965,169.5598,225.2572,134.5902,0,U,17973,999,1864,.6384087E-4,.75E-6,0
SL-14 R/B,1987-055B,2026-06-24T03:50:31.068384,14.85714973,.0021198,82.4989,248.6563,25.6026,334.6234,0,U,18153,999,8574,.31164698E-4,.296E-5,0
COSMOS 1867,1987-060A,2026-06-24T06:13:01.047360,14.31516455,.0016678,65.0114,8.2529,282.1327,77.7889,0,U,18187,999,3519,.21918502E-4,-.42E-6,0
SL-14 R/B,1988-001B,2026-06-24T03:54:07.014816,14.85613711,.00165799,82.5135,95.2118,244.3591,115.5913,0,U,18749,999,5783,.3359872E-4,.315E-5,0
COSMOS 1933,1988-020A,2026-06-23T22:56:03.423552,15.18749884,.00042488,82.5123,145.7322,162.9544,197.1834,0,U,18958,999,6635,.13349821E-3,.2804E-4,0
SL-3 R/B,1988-032B,2026-06-24T05:12:56.155968,15.20883536,.0024296,97.5257,158.2508,219.0488,140.8994,0,U,19046,999,6829,.15497266E-3,.3378E-4,0
SL-16 R/B,1988-039B,2026-06-24T04:00:34.891200,14.19630886,.00218269,71.0129,203.3992,182.6204,177.4810,0,U,19120,999,97349,.1961588E-4,-.7E-7,0
COSMOS 1953,1988-050A,2026-06-24T03:32:18.676032,15.30057908,.00124276,82.5077,51.0154,104.9374,255.3243,0,U,19210,999,5405,.20869101E-3,.6116E-4,0
SL-8 R/B,1988-053B,2026-06-23T12:44:37.529088,14.38969420,.00191878,74.0481,277.3636,70.3668,300.5960,0,U,19257,999,99182,.45901102E-4,.116E-5,0
COSMOS 1975,1988-093A,2026-06-24T00:35:05.335584,15.29401643,.00119587,82.5193,10.8237,148.7273,211.4681,0,U,19573,999,3565,.20855365E-3,.599E-4,0
SL-14 R/B,1988-093B,2026-06-24T06:48:13.146336,14.85746498,.00217649,82.5316,301.9823,48.4168,47.9390,0,U,19574,999,1684,.38051312E-4,.356E-5,0
SL-16 R/B,1988-102B,2026-06-24T01:38:55.183200,14.16165352,.00154044,71.0002,287.6592,215.5371,144.4728,0,U,19650,999,94195,.13485158E-3,.219E-5,0
INTERCOSMOS 24,1989-080A,2026-06-24T02:02:22.160544,12.59670835,.11882163,82.6059,35.1568,45.9166,323.3742,0,U,20261,999,68019,.17228914E-3,.612E-5,0
SL-14 R/B,1989-080C,2026-06-23T13:29:26.165760,12.50572973,.12284872,82.5939,105.2124,302.8107,46.0416,0,U,20262,999,67338,.44307607E-4,.148E-5,0
DELTA 1 R/B,1989-089B,2026-06-24T06:06:30.845088,14.50735019,.00698402,97.0636,5.6818,144.8555,215.7279,0,U,20323,999,91118,.71725784E-4,.256E-5,0
ARIANE 40 R/B,1990-005H,2026-06-24T03:10:47.577504,14.39930492,.0008984,98.2955,232.5327,240.5726,119.4567,0,U,20443,999,90812,.72392033E-4,.185E-5,0
DELTA 2 R/B(1),1990-008B,2026-06-23T17:49:45.721056,15.69744420,.00645269,35.5991,191.7710,176.8634,183.2521,0,U,20453,999,94273,.46674599E-3,.65495E-3,0
