SL-8 R/B                
1 15483U 85006B   26175.12161646  .00000142  00000+0  55752-4 0  9992
2 15483  74.0460  65.3038 0019047 311.3405 157.1094 14.37837557169325
SL-12 R/B(2)            
1 15772U 85042D   26175.19575375  .00000024  00000+0  32343-4 0  9998
2 15772  71.1068 222.7092 0036683 317.2149  99.4688 14.22006915129538
SL-14 R/B               
1 15945U 85069B   26175.03513475  .00000361  00000+0  37878-4 0  9997
2 15945  82.5273 284.9255 0018342 195.4882 164.5776 14.86520046188631
SL-16 R/B               
1 16182U 85097B   26174.78555262  .00000248  00000+0  14828-3 0  9996
2 16182  71.0034 277.1861 0005396  97.1134  74.3476 14.16611859102258
SL-14 R/B               
1 16496U 86006B   26175.05004838  .00000442  00000+0  44264-4 0  9998
2 16496  82.5264 159.6548 0074713 280.2762  79.0037 14.86951167165019
COSMOS 1743             
1 16719U 86034A   26174.85101243  .00047232  00000+0  43396-3 0  9994
2 16719  82.5277 321.6442 0004365 244.2090 115.8720 15.67495103196830
SL-14 R/B               
1 16792U 86046B   26175.15741801  .00000365  00000+0  39171-4 0  9995
2 16792  82.4820 339.5881 0021837 233.8785 126.0410 14.85675237142217
SL-14 R/B               
1 16882U 86055B   26175.09239284  .00000307  00000+0  32528-4 0  9990
2 16882  82.5201  26.6403 0018398 344.8123 131.3998 14.85726929135163
AJISAI (EGS)            
1 16908U 86061A   26175.29236471 -.00000094  00000+0  22013-4 0  9995
2 16908  50.0078 125.5461 0011172 198.6380 273.7703 12.44516775481270
SL-14 R/B               
1 17567U 87024B   26175.21946374  .00000350  00000+0  37035-4 0  9993
2 17567  82.5280 352.6396 0016678 267.8001  92.1305 14.86217150103952
COSMOS 1833             
1 17589U 87027A   26175.18725587  .00000307  00000+0  18950-3 0  9993
2 17589  70.9197 102.1550 0023038  43.3861 316.9068 14.13055388 25367
SL-16 R/B               
1 17590U 87027B   26175.13337357  .00000121  00000+0  83967-4 0  9999
2 17590  71.0033  52.1914 0006666 304.8297  55.2199 14.17171374 30423
SL-14 R/B               
1 17912U 87038B   26175.13451819  .00000302  00000+0  32103-4 0  9996
2 17912  82.5003 196.5282 0019532 168.2382 191.9295 14.85448569 95030
COSMOS 1844             
1 17973U 87041A   26175.17851332  .00000075  00000+0  63841-4 0  9995
2 17973  70.8965 169.5598 0032523 225.2572 134.5902 14.14567536 18642
SL-14 R/B               
1 18153U 87055B   26175.16008181  .00000296  00000+0  31165-4 0  9995
2 18153  82.4989 248.6563 0021198  25.6026 334.6234 14.85714973 85744
COSMOS 1867             
1 18187U 87060A   26175.25903990 -.00000042  00000+0  21919-4 0  9996
2 18187  65.0114   8.2529 0016678 282.1327  77.7889 14.31516455 35192
SL-14 R/B               
1 18749U 88001B   26175.16258119  .00000315  00000+0  33599-4 0  9991
2 18749  82.5135  95.2118 0016579 244.3591 115.5913 14.85613711 57832
COSMOS 1933             
1 18958U 88020A   26174.95559518  .00002804  00000+0  13350-3 0  9994
2 18958  82.5123 145.7322 0004248 162.9544 197.1834 15.18749884 66355
SL-3 R/B                
1 19046U 88032B   26175.21731662  .00003378  00000+0  15497-3 0  9999
2 19046  97.5257 158.2508 0024296 219.0488 140.8994 15.20883536 68292
SL-16 R/B               
1 19120U 88039B   26175.16707050 -.00000007  00000+0  19616-4 0  9992
2 19120  71.0129 203.3992 0021826 182.6204 177.4810 14.19630886973491
COSMOS 1953             
1 19210U 88050A   26175.14743838  .00006116  00000+0  20869-3 0  9994
2 19210  82.5077  51.0154 0012427 104.9374 255.3243 15.30057908 54050
SL-8 R/B                
1 19257U 88053B   26174.53098992  .00000116  00000+0  45901-4 0  9993
2 19257  74.0481 277.3636 0019187  70.3668 300.5960 14.38969420991828
COSMOS 1975             
1 19573U 88093A   26175.02436731  .00005990  00000+0  20855-3 0  9995
2 19573  82.5193  10.8237 0011958 148.7273 211.4681 15.29401643 35659
SL-14 R/B               
1 19574U 88093B   26175.28348549  .00000356  00000+0  38051-4 0  9992
2 19574  82.5316 301.9823 0021764  48.4168  47.9390 14.85746498 16847
SL-16 R/B               
1 19650U 88102B   26175.06869425  .00000219  00000+0  13485-3 0  9996
2 19650  71.0002 287.6592 0015404 215.5371 144.4728 14.16165352941952
INTERCOSMOS 24          
1 20261U 89080A   26175.08497871  .00000612  00000+0  17229-3 0  9993
2 20261  82.6059  35.1568 1188216  45.9166 323.3742 12.59670835680193
SL-14 R/B               
1 20262U 89080C   26174.56210840  .00000148  00000+0  44308-4 0  9998
2 20262  82.5939 105.2124 1228487 302.8107  46.0416 12.50572973673387
DELTA 1 R/B             
1 20323U 89089B   26175.25452367  .00000256  00000+0  71726-4 0  9998
2 20323  97.0636   5.6818 0069840 144.8555 215.7279 14.50735019911188
ARIANE 40 R/B           
1 20443U 90005H   26175.13249511  .00000185  00000+0  72392-4 0  9994
2 20443  98.2955 232.5327 0008984 240.5726 119.4567 14.39930492908129
DELTA 2 R/B(1)          
1 20453U 90008B   26174.74289029  .00065495  00000+0  46675-3 0  9991
2 20453  35.5991 191.7710 0064526 176.8634 183.2521 15.69744420942731
